{
  "type": "FeatureCollection",
  "features": [
    {
      "type": "Feature",
      "properties": {
        "norad_id": 36371,
        "name": "COSMOS 2251 DEB",
        "group": "cosmos-2251-debris",
        "lat": -71.43955424333727,
        "lon": 103.14798479982245,
        "alt_km": 664.8052321454961,
        "timestamp": "2025-12-12T14:39:18.329520+00:00",
        "meta_object_name": "COSMOS 2251 DEB",
        "meta_object_id": "1993-036AYY",
        "meta_epoch": "2025-12-07T19:05:47.723136",
        "meta_mean_motion": 14.70448722,
        "meta_eccentricity": 0.00102244,
        "meta_inclination": 74.0118,
        "meta_ra_of_asc_node": 171.1395,
        "meta_arg_of_pericenter": 209.6534,
        "meta_mean_anomaly": 150.4058,
        "meta_ephemeris_type": 0,
        "meta_classification_type": "U",
        "meta_norad_cat_id": 36371,
        "meta_element_set_no": 999,
        "meta_rev_at_epoch": 71372,
        "meta_bstar": 0.0029870702,
        "meta_mean_motion_dot": 0.00018131,
        "meta_mean_motion_ddot": 0,
        "tle_line1": "1 36371U 93036AYY 25341.79569124  .00018131  00000+0  29871-2 0  9991",
        "tle_line2": "2 36371  74.0118 171.1395 0010224 209.6534 150.4058 14.70448722713720"
      },
      "geometry": {
        "type": "Point",
        "coordinates": [
          103.14798479982245,
          -71.43955424333727
        ]
      }
    },
    {
      "type": "Feature",
      "properties": {
        "norad_id": 36379,
        "name": "COSMOS 2251 DEB",
        "group": "cosmos-2251-debris",
        "lat": 72.20709231106652,
        "lon": 63.76425452067797,
        "alt_km": 734.5780306270453,
        "timestamp": "2025-12-12T14:39:18.329529+00:00",
        "meta_object_name": "COSMOS 2251 DEB",
        "meta_object_id": "1993-036AZG",
        "meta_epoch": "2025-12-12T04:15:51.799968",
        "meta_mean_motion": 14.36076835,
        "meta_eccentricity": 0.00445791,
        "meta_inclination": 74.0123,
        "meta_ra_of_asc_node": 307.8561,
        "meta_arg_of_pericenter": 76.9262,
        "meta_mean_anomaly": 303.3834,
        "meta_ephemeris_type": 0,
        "meta_classification_type": "U",
        "meta_norad_cat_id": 36379,
        "meta_element_set_no": 999,
        "meta_rev_at_epoch": 64820,
        "meta_bstar": 0.00045972684,
        "meta_mean_motion_dot": 1.327e-05,
        "meta_mean_motion_ddot": 0,
        "tle_line1": "1 36379U 93036AZG 25346.17768287  .00001327  00000+0  45973-3 0  9998",
        "tle_line2": "2 36379  74.0123 307.8561 0044579  76.9262 303.3834 14.36076835648205"
      },
      "geometry": {
        "type": "Point",
        "coordinates": [
          63.76425452067797,
          72.20709231106652
        ]
      }
    },
    {
      "type": "Feature",
      "properties": {
        "norad_id": 36385,
        "name": "COSMOS 2251 DEB",
        "group": "cosmos-2251-debris",
        "lat": 31.872863777197885,
        "lon": 165.09005100506334,
        "alt_km": 606.3660114025133,
        "timestamp": "2025-12-12T14:39:18.329539+00:00",
        "meta_object_name": "COSMOS 2251 DEB",
        "meta_object_id": "1993-036AZN",
        "meta_epoch": "2025-12-11T10:47:20.100480",
        "meta_mean_motion": 14.72531354,
        "meta_eccentricity": 0.01412648,
        "meta_inclination": 73.9695,
        "meta_ra_of_asc_node": 157.0611,
        "meta_arg_of_pericenter": 331.7559,
        "meta_mean_anomaly": 27.6,
        "meta_ephemeris_type": 0,
        "meta_classification_type": "U",
        "meta_norad_cat_id": 36385,
        "meta_element_set_no": 999,
        "meta_rev_at_epoch": 85083,
        "meta_bstar": 0.0024868113,
        "meta_mean_motion_dot": 0.00018523,
        "meta_mean_motion_ddot": 0,
        "tle_line1": "1 36385U 93036AZN 25345.44953820  .00018523  00000+0  24868-2 0  9998",
        "tle_line2": "2 36385  73.9695 157.0611 0141264 331.7559  27.6000 14.72531354850832"
      },
      "geometry": {
        "type": "Point",
        "coordinates": [
          165.09005100506334,
          31.872863777197885
        ]
      }
    },
    {
      "type": "Feature",
      "properties": {
        "norad_id": 36420,
        "name": "COSMOS 2251 DEB",
        "group": "cosmos-2251-debris",
        "lat": -22.62894462336615,
        "lon": -91.13303471629071,
        "alt_km": 762.363234130582,
        "timestamp": "2025-12-12T14:39:18.329548+00:00",
        "meta_object_name": "COSMOS 2251 DEB",
        "meta_object_id": "1993-036AZT",
        "meta_epoch": "2025-12-09T05:12:09.080064",
        "meta_mean_motion": 14.36895704,
        "meta_eccentricity": 0.001793,
        "meta_inclination": 74.0374,
        "meta_ra_of_asc_node": 281.9559,
        "meta_arg_of_pericenter": 10.5601,
        "meta_mean_anomaly": 57.255,
        "meta_ephemeris_type": 0,
        "meta_classification_type": "U",
        "meta_norad_cat_id": 36420,
        "meta_element_set_no": 999,
        "meta_rev_at_epoch": 84986,
        "meta_bstar": 0.00029505,
        "meta_mean_motion_dot": 8.48e-06,
        "meta_mean_motion_ddot": 0,
        "tle_line1": "1 36420U 93036AZT 25343.21677176  .00000848  00000+0  29505-3 0  9993",
        "tle_line2": "2 36420  74.0374 281.9559 0017930  10.5601  57.2550 14.36895704849860"
      },
      "geometry": {
        "type": "Point",
        "coordinates": [
          -91.13303471629071,
          -22.62894462336615
        ]
      }
    },
    {
      "type": "Feature",
      "properties": {
        "norad_id": 36430,
        "name": "COSMOS 2251 DEB",
        "group": "cosmos-2251-debris",
        "lat": 2.4099268580404933,
        "lon": 109.4576216290977,
        "alt_km": 817.5672128863698,
        "timestamp": "2025-12-12T14:39:18.329557+00:00",
        "meta_object_name": "COSMOS 2251 DEB",
        "meta_object_id": "1993-036BAD",
        "meta_epoch": "2025-12-07T15:14:59.696160",
        "meta_mean_motion": 14.27773173,
        "meta_eccentricity": 0.00973352,
        "meta_inclination": 74.0036,
        "meta_ra_of_asc_node": 117.7938,
        "meta_arg_of_pericenter": 268.8676,
        "meta_mean_anomaly": 90.1319,
        "meta_ephemeris_type": 0,
        "meta_classification_type": "U",
        "meta_norad_cat_id": 36430,
        "meta_element_set_no": 999,
        "meta_rev_at_epoch": 64484,
        "meta_bstar": 0.00083938099,
        "meta_mean_motion_dot": 2.154e-05,
        "meta_mean_motion_ddot": 0,
        "tle_line1": "1 36430U 93036BAD 25341.63541315  .00002154  00000+0  83938-3 0  9995",
        "tle_line2": "2 36430  74.0036 117.7938 0097335 268.8676  90.1319 14.27773173644845"
      },
      "geometry": {
        "type": "Point",
        "coordinates": [
          109.4576216290977,
          2.4099268580404933
        ]
      }
    },
    {
      "type": "Feature",
      "properties": {
        "norad_id": 36437,
        "name": "COSMOS 2251 DEB",
        "group": "cosmos-2251-debris",
        "lat": -12.314811314105054,
        "lon": 30.65011963877081,
        "alt_km": 660.8626876744556,
        "timestamp": "2025-12-12T14:39:18.329565+00:00",
        "meta_object_name": "COSMOS 2251 DEB",
        "meta_object_id": "1993-036BAL",
        "meta_epoch": "2025-12-08T11:07:20.888544",
        "meta_mean_motion": 14.70572706,
        "meta_eccentricity": 0.00232731,
        "meta_inclination": 73.9426,
        "meta_ra_of_asc_node": 42.346,
        "meta_arg_of_pericenter": 273.808,
        "meta_mean_anomaly": 86.043,
        "meta_ephemeris_type": 0,
        "meta_classification_type": "U",
        "meta_norad_cat_id": 36437,
        "meta_element_set_no": 999,
        "meta_rev_at_epoch": 65988,
        "meta_bstar": 0.0019430699,
        "meta_mean_motion_dot": 0.00011844,
        "meta_mean_motion_ddot": 0,
        "tle_line1": "1 36437U 93036BAL 25342.46343621  .00011844  00000+0  19431-2 0  9996",
        "tle_line2": "2 36437  73.9426  42.3460 0023273 273.8080  86.0430 14.70572706659886"
      },
      "geometry": {
        "type": "Point",
        "coordinates": [
          30.65011963877081,
          -12.314811314105054
        ]
      }
    },
    {
      "type": "Feature",
      "properties": {
        "norad_id": 36439,
        "name": "COSMOS 2251 DEB",
        "group": "cosmos-2251-debris",
        "lat": -29.62596127983649,
        "lon": 27.51226985578394,
        "alt_km": 834.9134019005232,
        "timestamp": "2025-12-12T14:39:18.329574+00:00",
        "meta_object_name": "COSMOS 2251 DEB",
        "meta_object_id": "1993-036BAN",
        "meta_epoch": "2025-12-11T12:04:38.629632",
        "meta_mean_motion": 13.47792153,
        "meta_eccentricity": 0.04277143,
        "meta_inclination": 73.9683,
        "meta_ra_of_asc_node": 38.6892,
        "meta_arg_of_pericenter": 10.8049,
        "meta_mean_anomaly": 350.189,
        "meta_ephemeris_type": 0,
        "meta_classification_type": "U",
        "meta_norad_cat_id": 36439,
        "meta_element_set_no": 999,
        "meta_rev_at_epoch": 58596,
        "meta_bstar": 0.0014143946,
        "meta_mean_motion_dot": 1.502e-05,
        "meta_mean_motion_ddot": 0,
        "tle_line1": "1 36439U 93036BAN 25345.50322488  .00001502  00000+0  14144-2 0  9990",
        "tle_line2": "2 36439  73.9683  38.6892 0427714  10.8049 350.1890 13.47792153585967"
      },
      "geometry": {
        "type": "Point",
        "coordinates": [
          27.51226985578394,
          -29.62596127983649
        ]
      }
    }
  ]
}